[{"OBJECT_NAME":"CLARITY-1","OBJECT_ID":"2025-052T","EPOCH":"2026-03-09T21:50:38.075424","MEAN_MOTION":15.81863851,"ECCENTRICITY":0.00041333,"INCLINATION":97.4224,"RA_OF_ASC_NODE":341.0548,"ARG_OF_PERICENTER":106.2264,"MEAN_ANOMALY":253.946,"EPHEMERIS_TYPE":0,"CLASSIFICATION_TYPE":"U","NORAD_CAT_ID":63227,"ELEMENT_SET_NO":999,"REV_AT_EPOCH":5587,"BSTAR":0.0005281172,"MEAN_MOTION_DOT":0.00107362,"MEAN_MOTION_DDOT":0},{"OBJECT_NAME":"STARLINK-36370","OBJECT_ID":"2026-037F","EPOCH":"2026-03-09T22:00:01.999584","MEAN_MOTION":15.81995919,"ECCENTRICITY":0.00022213,"INCLINATION":42.9987,"RA_OF_ASC_NODE":197.1458,"ARG_OF_PERICENTER":304.6032,"MEAN_ANOMALY":198.4627,"EPHEMERIS_TYPE":0,"CLASSIFICATION_TYPE":"U","NORAD_CAT_ID":67937,"ELEMENT_SET_NO":999,"REV_AT_EPOCH":323,"BSTAR":0.00026612937,"MEAN_MOTION_DOT":0.00055817,"MEAN_MOTION_DDOT":0}]
